IRIDIUM 33 DEB          
1 34773U 97051LS  17345.82058085  .00001603  00000-0  40007-3 0  9996
2 34773  86.4150 209.5002 0015491 235.6223 124.3518 14.50985598463181
